{"fetched_at":"2026-07-14T17:40:28.416Z","source":"https://celestrak.org/NORAD/elements/gp.php?GROUP=spire&FORMAT=JSON","constellation":"spire","records":[{"OBJECT_NAME":"LEMUR-2-LEIA-PHILIP","OBJECT_ID":"2025-052AN","EPOCH":"2026-07-14T04:49:34.971744","CLASSIFICATION_TYPE":"U","MEAN_MOTION":14.97391003,"ECCENTRICITY":0.0005085,"INCLINATION":97.6809,"RA_OF_ASC_NODE":86.6941,"ARG_OF_PERICENTER":121.5561,"MEAN_ANOMALY":238.6158,"EPHEMERIS_TYPE":0,"NORAD_CAT_ID":63246,"ELEMENT_SET_NO":999,"REV_AT_EPOCH":7271,"BSTAR":0.000034128,"MEAN_MOTION_DOT":0.00000339,"MEAN_MOTION_DDOT":0},{"OBJECT_NAME":"LEMUR-2-LIA-MARTIN","OBJECT_ID":"2025-052AQ","EPOCH":"2026-07-14T03:06:09.868896","CLASSIFICATION_TYPE":"U","MEAN_MOTION":14.98025767,"ECCENTRICITY":0.0005376,"INCLINATION":97.6873,"RA_OF_ASC_NODE":87.1404,"ARG_OF_PERICENTER":92.6017,"MEAN_ANOMALY":267.5821,"EPHEMERIS_TYPE":0,"NORAD_CAT_ID":63248,"ELEMENT_SET_NO":999,"REV_AT_EPOCH":7271,"BSTAR":0.00021882,"MEAN_MOTION_DOT":0.00002528,"MEAN_MOTION_DDOT":0},{"OBJECT_NAME":"LEMUR-2-DELOITTE-1","OBJECT_ID":"2025-052BB","EPOCH":"2026-07-13T17:00:32.955264","CLASSIFICATION_TYPE":"U","MEAN_MOTION":14.97775097,"ECCENTRICITY":0.0002497,"INCLINATION":97.6883,"RA_OF_ASC_NODE":87.0566,"ARG_OF_PERICENTER":66.3822,"MEAN_ANOMALY":293.7662,"EPHEMERIS_TYPE":0,"NORAD_CAT_ID":63259,"ELEMENT_SET_NO":999,"REV_AT_EPOCH":7266,"BSTAR":0.00019939,"MEAN_MOTION_DOT":0.00002283,"MEAN_MOTION_DDOT":0},{"OBJECT_NAME":"LEMUR-2-EMERSONROSE","OBJECT_ID":"2025-052BD","EPOCH":"2026-07-14T04:35:51.786240","CLASSIFICATION_TYPE":"U","MEAN_MOTION":14.99285612,"ECCENTRICITY":0.0002758,"INCLINATION":97.6887,"RA_OF_ASC_NODE":88.1429,"ARG_OF_PERICENTER":62.7651,"MEAN_ANOMALY":297.3853,"EPHEMERIS_TYPE":0,"NORAD_CAT_ID":63261,"ELEMENT_SET_NO":999,"REV_AT_EPOCH":7278,"BSTAR":0.00023849,"MEAN_MOTION_DOT":0.00002852,"MEAN_MOTION_DDOT":0},{"OBJECT_NAME":"LEMUR-2-MARACHE-FRAN","OBJECT_ID":"2025-052BE","EPOCH":"2026-07-13T16:21:13.843008","CLASSIFICATION_TYPE":"U","MEAN_MOTION":15.00310104,"ECCENTRICITY":0.0005034,"INCLINATION":97.6842,"RA_OF_ASC_NODE":88.0061,"ARG_OF_PERICENTER":258.6633,"MEAN_ANOMALY":101.4026,"EPHEMERIS_TYPE":0,"NORAD_CAT_ID":63262,"ELEMENT_SET_NO":999,"REV_AT_EPOCH":7273,"BSTAR":0.00015702,"MEAN_MOTION_DOT":0.00001909,"MEAN_MOTION_DDOT":0},{"OBJECT_NAME":"LEMUR-2-THEFALCONER","OBJECT_ID":"2025-052BG","EPOCH":"2026-07-13T22:32:44.642112","CLASSIFICATION_TYPE":"U","MEAN_MOTION":14.97560808,"ECCENTRICITY":0.0000315,"INCLINATION":97.6838,"RA_OF_ASC_NODE":86.876,"ARG_OF_PERICENTER":328.207,"MEAN_ANOMALY":31.9133,"EPHEMERIS_TYPE":0,"NORAD_CAT_ID":63264,"ELEMENT_SET_NO":999,"REV_AT_EPOCH":7269,"BSTAR":0.00010255,"MEAN_MOTION_DOT":0.00001139,"MEAN_MOTION_DDOT":0},{"OBJECT_NAME":"LEMUR-2-UNTITLED-SC","OBJECT_ID":"2025-061A","EPOCH":"2026-07-13T22:19:01.159392","CLASSIFICATION_TYPE":"U","MEAN_MOTION":15.13641863,"ECCENTRICITY":0.0019107,"INCLINATION":97.565,"RA_OF_ASC_NODE":170.1016,"ARG_OF_PERICENTER":167.3308,"MEAN_ANOMALY":192.8407,"EPHEMERIS_TYPE":0,"NORAD_CAT_ID":63351,"ELEMENT_SET_NO":999,"REV_AT_EPOCH":7163,"BSTAR":0.00011037,"MEAN_MOTION_DOT":0.00001925,"MEAN_MOTION_DDOT":0},{"OBJECT_NAME":"LEMUR-2-ESPERANZA","OBJECT_ID":"2025-061B","EPOCH":"2026-07-14T04:04:23.001024","CLASSIFICATION_TYPE":"U","MEAN_MOTION":15.1374856,"ECCENTRICITY":0.0018746,"INCLINATION":97.5657,"RA_OF_ASC_NODE":170.4397,"ARG_OF_PERICENTER":165.6464,"MEAN_ANOMALY":194.5304,"EPHEMERIS_TYPE":0,"NORAD_CAT_ID":63352,"ELEMENT_SET_NO":999,"REV_AT_EPOCH":7167,"BSTAR":0.000095468,"MEAN_MOTION_DOT":0.0000166,"MEAN_MOTION_DDOT":0},{"OBJECT_NAME":"LEMUR-2-KREMPEL-BRO2","OBJECT_ID":"2025-061C","EPOCH":"2026-07-13T23:46:37.947072","CLASSIFICATION_TYPE":"U","MEAN_MOTION":15.14174614,"ECCENTRICITY":0.0019865,"INCLINATION":97.5703,"RA_OF_ASC_NODE":170.8294,"ARG_OF_PERICENTER":159.2855,"MEAN_ANOMALY":200.9186,"EPHEMERIS_TYPE":0,"NORAD_CAT_ID":63353,"ELEMENT_SET_NO":999,"REV_AT_EPOCH":7166,"BSTAR":0.00010397,"MEAN_MOTION_DOT":0.00001837,"MEAN_MOTION_DDOT":0},{"OBJECT_NAME":"LEMUR-2-THERMORAPTOR","OBJECT_ID":"2025-061D","EPOCH":"2026-07-14T04:04:12.031680","CLASSIFICATION_TYPE":"U","MEAN_MOTION":15.14257627,"ECCENTRICITY":0.0019645,"INCLINATION":97.5709,"RA_OF_ASC_NODE":171.0882,"ARG_OF_PERICENTER":157.5029,"MEAN_ANOMALY":202.7068,"EPHEMERIS_TYPE":0,"NORAD_CAT_ID":63354,"ELEMENT_SET_NO":999,"REV_AT_EPOCH":7169,"BSTAR":0.00010288,"MEAN_MOTION_DOT":0.00001822,"MEAN_MOTION_DDOT":0},{"OBJECT_NAME":"LEMUR-2-NEUROSPICY","OBJECT_ID":"2025-061E","EPOCH":"2026-07-13T20:59:49.236288","CLASSIFICATION_TYPE":"U","MEAN_MOTION":15.14375512,"ECCENTRICITY":0.0017345,"INCLINATION":97.5636,"RA_OF_ASC_NODE":170.4007,"ARG_OF_PERICENTER":161.331,"MEAN_ANOMALY":198.8561,"EPHEMERIS_TYPE":0,"NORAD_CAT_ID":63355,"ELEMENT_SET_NO":999,"REV_AT_EPOCH":7165,"BSTAR":0.00012908,"MEAN_MOTION_DOT":0.00002309,"MEAN_MOTION_DDOT":0},{"OBJECT_NAME":"LEMUR-2-TILLINFINITY","OBJECT_ID":"2025-061F","EPOCH":"2026-07-13T21:35:47.484096","CLASSIFICATION_TYPE":"U","MEAN_MOTION":15.1495922,"ECCENTRICITY":0.0018939,"INCLINATION":97.5622,"RA_OF_ASC_NODE":170.7347,"ARG_OF_PERICENTER":150.0643,"MEAN_ANOMALY":210.1677,"EPHEMERIS_TYPE":0,"NORAD_CAT_ID":63356,"ELEMENT_SET_NO":999,"REV_AT_EPOCH":7168,"BSTAR":0.00011182,"MEAN_MOTION_DOT":0.00002026,"MEAN_MOTION_DDOT":0},{"OBJECT_NAME":"LEMUR-2-KREMPEL-BRO1","OBJECT_ID":"2025-061G","EPOCH":"2026-07-13T21:02:30.411168","CLASSIFICATION_TYPE":"U","MEAN_MOTION":15.14766529,"ECCENTRICITY":0.0019554,"INCLINATION":97.5622,"RA_OF_ASC_NODE":170.6202,"ARG_OF_PERICENTER":151.5684,"MEAN_ANOMALY":208.6619,"EPHEMERIS_TYPE":0,"NORAD_CAT_ID":63357,"ELEMENT_SET_NO":999,"REV_AT_EPOCH":7167,"BSTAR":0.00012655,"MEAN_MOTION_DOT":0.0000229,"MEAN_MOTION_DDOT":0},{"OBJECT_NAME":"LEMUR-2-LANGER2SPACE","OBJECT_ID":"2025-061H","EPOCH":"2026-07-13T21:48:23.061600","CLASSIFICATION_TYPE":"U","MEAN_MOTION":15.14460179,"ECCENTRICITY":0.0017302,"INCLINATION":97.5628,"RA_OF_ASC_NODE":170.4552,"ARG_OF_PERICENTER":159.5245,"MEAN_ANOMALY":200.6684,"EPHEMERIS_TYPE":0,"NORAD_CAT_ID":63358,"ELEMENT_SET_NO":999,"REV_AT_EPOCH":7166,"BSTAR":0.0001005,"MEAN_MOTION_DOT":0.00001787,"MEAN_MOTION_DDOT":0},{"OBJECT_NAME":"LEMUR-2-BALTO","OBJECT_ID":"2025-052BH","EPOCH":"2026-07-14T03:11:02.541120","CLASSIFICATION_TYPE":"U","MEAN_MOTION":15.00358547,"ECCENTRICITY":0.0005138,"INCLINATION":97.6931,"RA_OF_ASC_NODE":88.4383,"ARG_OF_PERICENTER":332.0768,"MEAN_ANOMALY":28.0179,"EPHEMERIS_TYPE":0,"NORAD_CAT_ID":63395,"ELEMENT_SET_NO":999,"REV_AT_EPOCH":7280,"BSTAR":0.00022028,"MEAN_MOTION_DOT":0.00002706,"MEAN_MOTION_DDOT":0},{"OBJECT_NAME":"LEMUR-2-KRISH","OBJECT_ID":"2025-135AK","EPOCH":"2026-07-13T19:45:12.256128","CLASSIFICATION_TYPE":"U","MEAN_MOTION":14.96443451,"ECCENTRICITY":0.0001441,"INCLINATION":97.7772,"RA_OF_ASC_NODE":309.5216,"ARG_OF_PERICENTER":95.6216,"MEAN_ANOMALY":264.5169,"EPHEMERIS_TYPE":0,"NORAD_CAT_ID":64561,"ELEMENT_SET_NO":999,"REV_AT_EPOCH":5790,"BSTAR":0.00018963,"MEAN_MOTION_DOT":0.00002093,"MEAN_MOTION_DDOT":0}]}
