LEMUR-2-LEIA-PHILIP     
1 63246U 25052AN  26195.20109921  .00000339  00000+0  34128-4 0  9998
2 63246  97.6809  86.6941 0005085 121.5561 238.6158 14.97391003 72712
LEMUR-2-LIA-MARTIN      
1 63248U 25052AQ  26195.12928089  .00002528  00000+0  21882-3 0  9999
2 63248  97.6873  87.1404 0005376  92.6017 267.5821 14.98025767 72712
LEMUR-2-DELOITTE-1      
1 63259U 25052BB  26194.70871476  .00002283  00000+0  19939-3 0  9999
2 63259  97.6883  87.0566 0002497  66.3822 293.7662 14.97775097 72661
LEMUR-2-EMERSONROSE     
1 63261U 25052BD  26195.19157160  .00002852  00000+0  23849-3 0  9990
2 63261  97.6887  88.1429 0002758  62.7651 297.3853 14.99285612 72784
LEMUR-2-MARACHE-FRAN    
1 63262U 25052BE  26194.68141022  .00001909  00000+0  15702-3 0  9995
2 63262  97.6842  88.0061 0005034 258.6633 101.4026 15.00310104 72733
LEMUR-2-THEFALCONER     
1 63264U 25052BG  26194.93940558  .00001139  00000+0  10255-3 0  9999
2 63264  97.6838  86.8760 0000315 328.2070  31.9133 14.97560808 72692
LEMUR-2-UNTITLED-SC     
1 63351U 25061A   26194.92987453  .00001925  00000+0  11037-3 0  9992
2 63351  97.5650 170.1016 0019107 167.3308 192.8407 15.13641863 71630
LEMUR-2-ESPERANZA       
1 63352U 25061B   26195.16971066  .00001660  00000+0  95468-4 0  9990
2 63352  97.5657 170.4397 0018746 165.6464 194.5304 15.13748560 71676
LEMUR-2-KREMPEL-BRO2    
1 63353U 25061C   26194.99071698  .00001837  00000+0  10397-3 0  9996
2 63353  97.5703 170.8294 0019865 159.2855 200.9186 15.14174614 71668
LEMUR-2-THERMORAPTOR    
1 63354U 25061D   26195.16958370  .00001822  00000+0  10288-3 0  9991
2 63354  97.5709 171.0882 0019645 157.5029 202.7068 15.14257627 71699
LEMUR-2-NEUROSPICY      
1 63355U 25061E   26194.87487542  .00002309  00000+0  12908-3 0  9999
2 63355  97.5636 170.4007 0017345 161.3310 198.8561 15.14375512 71655
LEMUR-2-TILLINFINITY    
1 63356U 25061F   26194.89985514  .00002026  00000+0  11182-3 0  9993
2 63356  97.5622 170.7347 0018939 150.0643 210.1677 15.14959220 71688
LEMUR-2-KREMPEL-BRO1    
1 63357U 25061G   26194.87674087  .00002290  00000+0  12655-3 0  9991
2 63357  97.5622 170.6202 0019554 151.5684 208.6619 15.14766529 71678
LEMUR-2-LANGER2SPACE    
1 63358U 25061H   26194.90860025  .00001787  00000+0  10050-3 0  9992
2 63358  97.5628 170.4552 0017302 159.5245 200.6684 15.14460179 71666
LEMUR-2-BALTO           
1 63395U 25052BH  26195.13266830  .00002706  00000+0  22028-3 0  9993
2 63395  97.6931  88.4383 0005138 332.0768  28.0179 15.00358547 72805
LEMUR-2-KRISH           
1 64561U 25135AK  26194.82305852  .00002093  00000+0  18963-3 0  9996
2 64561  97.7772 309.5216 0001441  95.6216 264.5169 14.96443451 57903
